{"fetched_at":"2026-03-29T02:12:04Z","count":15717,"tles":[{"name":"STARLINK-3145","line1":"1 49455U 21104AZ  26087.53971149  .00003245  00000+0  22170-3 0  9995","line2":"2 49455  53.2170 134.5003 0001450  85.0305 275.0853 15.08875927241621","category":"Starlink"}]}