{
  "norad_id": 49455,
  "name": "STARLINK-3145",
  "history": [
    {
      "epoch": "2026-03-28T12:57:11.071872Z",
      "apogee_km": 540.6373451875434,
      "perigee_km": 538.6298081661917,
      "latitude_deg": 1.8783021842678544e-05,
      "longitude_deg": 114.24548147091221,
      "height_km": 540.4421824794613,
      "semi_major_axis_km": 6917.770576676868,
      "eccentricity": 0.0001451,
      "inclination_deg": 53.217,
      "raan_deg": 134.5003,
      "arg_perigee_deg": 85.0305,
      "mean_anomaly_deg": 275.0853,
      "mean_motion_rev_day": 15.08875927
    }
  ]
}